start=new Date('2022-08-30T00:00:00.000Z').valueOf();
sats=[{"APOAPSIS":"548.156","CLASSIFICATION_TYPE":"U","TIME_SYSTEM":"UTC","COUNTRY_CODE":"US","PERIOD":"95.592","OBJECT_ID":"2020-062AK","BSTAR":"-0.00004803500000","REV_AT_EPOCH":"11018","MEAN_MOTION_DOT":"-0.00000997","SEMIMAJOR_AXIS":"6925.343","PERIAPSIS":"546.260","OBJECT_TYPE":"PAYLOAD","NORAD_CAT_ID":"46358","MEAN_MOTION_DDOT":"0.0000000000000","LAUNCH_DATE":"2020-09-03","EPOCH":"2022-08-29T16:51:18.821952","RA_OF_ASC_NODE":"38.6216","RCS_SIZE":"LARGE","MEAN_ANOMALY":"276.5250","ARG_OF_PERICENTER":"83.5895","OBJECT_NAME":"STARLINK-1690","TLE_LINE2":"2 46358  53.0562  38.6216 0001369  83.5895 276.5250 15.06401877110189","ECCENTRICITY":"0.00013690","GP_ID":"211284167","ELEMENT_SET_NO":"999","MEAN_ELEMENT_THEORY":"SGP4","REF_FRAME":"TEME","EPHEMERIS_TYPE":"0","CENTER_NAME":"EARTH","TLE_LINE1":"1 46358U 20062AK  22241.70230118 -.00000997  00000-0 -48035-4 0  9990","DECAY_DATE":null,"MEAN_MOTION":"15.06401877","SITE":"AFETR","FILE":"3551093","INCLINATION":"53.0562"},{"OBJECT_ID":"2020-062AL","SEMIMAJOR_AXIS":"6925.355","PERIAPSIS":"546.249","BSTAR":"-0.00004504200000","REV_AT_EPOCH":"11079","MEAN_MOTION_DOT":"-0.00000952","NORAD_CAT_ID":"46359","OBJECT_TYPE":"PAYLOAD","RA_OF_ASC_NODE":"354.0208","LAUNCH_DATE":"2020-09-03","EPOCH":"2022-08-29T14:47:14.988480","MEAN_MOTION_DDOT":"0.0000000000000","APOAPSIS":"548.191","CLASSIFICATION_TYPE":"U","TIME_SYSTEM":"UTC","PERIOD":"95.592","COUNTRY_CODE":"US","EPHEMERIS_TYPE":"0","CENTER_NAME":"EARTH","ELEMENT_SET_NO":"999","REF_FRAME":"TEME","MEAN_ELEMENT_THEORY":"SGP4","SITE":"AFETR","TLE_LINE1":"1 46359U 20062AL  22241.61614570 -.00000952  00000-0 -45042-4 0  9995","MEAN_MOTION":"15.06398008","DECAY_DATE":null,"INCLINATION":"53.0556","FILE":"3551093","RCS_SIZE":"LARGE","MEAN_ANOMALY":"280.8446","ARG_OF_PERICENTER":"79.2701","OBJECT_NAME":"STARLINK-1707","GP_ID":"211284419","ECCENTRICITY":"0.00014020","TLE_LINE2":"2 46359  53.0556 354.0208 0001402  79.2701 280.8446 15.06398008110798"},{"RCS_SIZE":"LARGE","OBJECT_NAME":"STARLINK-1713","ARG_OF_PERICENTER":"75.9293","MEAN_ANOMALY":"284.1840","GP_ID":"211285169","ECCENTRICITY":"0.00012990","TLE_LINE2":"2 46360  53.0566 353.0249 0001299  75.9293 284.1840 15.06396656110835","EPHEMERIS_TYPE":"0","CENTER_NAME":"EARTH","REF_FRAME":"TEME","MEAN_ELEMENT_THEORY":"SGP4","ELEMENT_SET_NO":"999","SITE":"AFETR","DECAY_DATE":null,"MEAN_MOTION":"15.06396656","TLE_LINE1":"1 46360U 20062AM  22241.83730075  .00001035  00000-0  88381-4 0  9994","INCLINATION":"53.0566","FILE":"3551093","APOAPSIS":"548.123","CLASSIFICATION_TYPE":"U","TIME_SYSTEM":"UTC","PERIOD":"95.592","COUNTRY_CODE":"US","OBJECT_ID":"2020-062AM","PERIAPSIS":"546.324","SEMIMAJOR_AXIS":"6925.359","MEAN_MOTION_DOT":"0.00001035","BSTAR":"0.00008838100000","REV_AT_EPOCH":"11083","OBJECT_TYPE":"PAYLOAD","NORAD_CAT_ID":"46360","EPOCH":"2022-08-29T20:05:42.784800","LAUNCH_DATE":"2020-09-03","RA_OF_ASC_NODE":"353.0249","MEAN_MOTION_DDOT":"0.0000000000000"},{"GP_ID":"211283919","ECCENTRICITY":"0.00012300","TLE_LINE2":"2 46361  53.0544 353.7279 0001230  84.2652 275.8477 15.06397244110803","RCS_SIZE":"LARGE","OBJECT_NAME":"STARLINK-1722","ARG_OF_PERICENTER":"84.2652","MEAN_ANOMALY":"275.8477","INCLINATION":"53.0544","FILE":"3551093","CENTER_NAME":"EARTH","EPHEMERIS_TYPE":"0","REF_FRAME":"TEME","MEAN_ELEMENT_THEORY":"SGP4","ELEMENT_SET_NO":"999","SITE":"AFETR","MEAN_MOTION":"15.06397244","DECAY_DATE":null,"TLE_LINE1":"1 46361U 20062AN  22241.67416765 -.00002043  00000-0 -11829-3 0  9998","TIME_SYSTEM":"UTC","PERIOD":"95.592","COUNTRY_CODE":"US","APOAPSIS":"548.074","CLASSIFICATION_TYPE":"U","NORAD_CAT_ID":"46361","OBJECT_TYPE":"PAYLOAD","RA_OF_ASC_NODE":"353.7279","LAUNCH_DATE":"2020-09-03","EPOCH":"2022-08-29T16:10:48.084960","MEAN_MOTION_DDOT":"0.0000000000000","OBJECT_ID":"2020-062AN","PERIAPSIS":"546.370","SEMIMAJOR_AXIS":"6925.357","MEAN_MOTION_DOT":"-0.00002043","BSTAR":"-0.00011829000000","REV_AT_EPOCH":"11080"},{"PERIOD":"95.593","COUNTRY_CODE":"US","TIME_SYSTEM":"UTC","CLASSIFICATION_TYPE":"U","APOAPSIS":"548.191","LAUNCH_DATE":"2020-09-03","EPOCH":"2022-08-29T17:15:51.603264","RA_OF_ASC_NODE":"353.5499","MEAN_MOTION_DDOT":"0.0000000000000","NORAD_CAT_ID":"46362","OBJECT_TYPE":"PAYLOAD","SEMIMAJOR_AXIS":"6925.371","PERIAPSIS":"546.282","BSTAR":"0.00004869600000","REV_AT_EPOCH":"11081","MEAN_MOTION_DOT":"0.00000444","OBJECT_ID":"2020-062AP","GP_ID":"211283670","ECCENTRICITY":"0.00013780","TLE_LINE2":"2 46362  53.0563 353.5499 0001378  81.3229 278.7916 15.06392596110814","ARG_OF_PERICENTER":"81.3229","MEAN_ANOMALY":"278.7916","OBJECT_NAME":"STARLINK-1726","RCS_SIZE":"LARGE","INCLINATION":"53.0563","FILE":"3551093","SITE":"AFETR","TLE_LINE1":"1 46362U 20062AP  22241.71934726  .00000444  00000-0  48696-4 0  9990","MEAN_MOTION":"15.06392596","DECAY_DATE":null,"EPHEMERIS_TYPE":"0","CENTER_NAME":"EARTH","ELEMENT_SET_NO":"999","MEAN_ELEMENT_THEORY":"SGP4","REF_FRAME":"TEME"},{"EPHEMERIS_TYPE":"0","CENTER_NAME":"EARTH","ELEMENT_SET_NO":"999","MEAN_ELEMENT_THEORY":"SGP4","REF_FRAME":"TEME","SITE":"AFETR","TLE_LINE1":"1 46363U 20062AQ  22241.44564099 -.00000040  00000-0  16184-4 0  9993","DECAY_DATE":null,"MEAN_MOTION":"15.06403565","INCLINATION":"53.0563","FILE":"3550523","RCS_SIZE":"LARGE","ARG_OF_PERICENTER":"84.2683","MEAN_ANOMALY":"275.8459","OBJECT_NAME":"STARLINK-1739","GP_ID":"211226570","ECCENTRICITY":"0.00013470","TLE_LINE2":"2 46363  53.0563 354.7502 0001347  84.2683 275.8459 15.06403565110926","OBJECT_ID":"2020-062AQ","SEMIMAJOR_AXIS":"6925.338","PERIAPSIS":"546.270","REV_AT_EPOCH":"11092","BSTAR":"0.00001618400000","MEAN_MOTION_DOT":"-0.00000040","OBJECT_TYPE":"PAYLOAD","NORAD_CAT_ID":"46363","LAUNCH_DATE":"2020-09-03","EPOCH":"2022-08-29T10:41:43.381536","RA_OF_ASC_NODE":"354.7502","MEAN_MOTION_DDOT":"0.0000000000000","APOAPSIS":"548.135","CLASSIFICATION_TYPE":"U","TIME_SYSTEM":"UTC","PERIOD":"95.592","COUNTRY_CODE":"US"},{"TIME_SYSTEM":"UTC","PERIOD":"95.593","COUNTRY_CODE":"US","APOAPSIS":"548.030","CLASSIFICATION_TYPE":"U","NORAD_CAT_ID":"46364","OBJECT_TYPE":"PAYLOAD","LAUNCH_DATE":"2020-09-03","EPOCH":"2022-08-29T15:32:26.831328","RA_OF_ASC_NODE":"334.3604","MEAN_MOTION_DDOT":"0.0000000000000","OBJECT_ID":"2020-062AR","SEMIMAJOR_AXIS":"6925.378","PERIAPSIS":"546.455","BSTAR":"0.00001894400000","REV_AT_EPOCH":"11107","MEAN_MOTION_DOT":"0.00000001","GP_ID":"211284670","ECCENTRICITY":"0.00011370","TLE_LINE2":"2 46364  53.0566 334.3604 0001137 129.4333 230.6757 15.06390552111076","RCS_SIZE":"LARGE","ARG_OF_PERICENTER":"129.4333","MEAN_ANOMALY":"230.6757","OBJECT_NAME":"STARLINK-1763","INCLINATION":"53.0566","FILE":"3551093","EPHEMERIS_TYPE":"0","CENTER_NAME":"EARTH","ELEMENT_SET_NO":"999","MEAN_ELEMENT_THEORY":"SGP4","REF_FRAME":"TEME","SITE":"AFETR","TLE_LINE1":"1 46364U 20062AR  22241.64753277  .00000001  00000-0  18944-4 0  9996","DECAY_DATE":null,"MEAN_MOTION":"15.06390552"},{"NORAD_CAT_ID":"46365","OBJECT_TYPE":"PAYLOAD","LAUNCH_DATE":"2020-09-03","RA_OF_ASC_NODE":"353.6722","EPOCH":"2022-08-29T16:33:23.730336","MEAN_MOTION_DDOT":"0.0000000000000","OBJECT_ID":"2020-062AS","PERIAPSIS":"546.319","SEMIMAJOR_AXIS":"6925.366","MEAN_MOTION_DOT":"-0.00000738","REV_AT_EPOCH":"11080","BSTAR":"-0.00003065700000","TIME_SYSTEM":"UTC","PERIOD":"95.593","COUNTRY_CODE":"US","APOAPSIS":"548.143","CLASSIFICATION_TYPE":"U","INCLINATION":"53.0566","FILE":"3551093","EPHEMERIS_TYPE":"0","CENTER_NAME":"EARTH","MEAN_ELEMENT_THEORY":"SGP4","REF_FRAME":"TEME","ELEMENT_SET_NO":"999","SITE":"AFETR","DECAY_DATE":null,"MEAN_MOTION":"15.06394209","TLE_LINE1":"1 46365U 20062AS  22241.68985799 -.00000738  00000-0 -30657-4 0  9991","GP_ID":"211283420","ECCENTRICITY":"0.00013170","TLE_LINE2":"2 46365  53.0566 353.6722 0001317  85.2835 274.8304 15.06394209110809","RCS_SIZE":"LARGE","OBJECT_NAME":"STARLINK-1550","MEAN_ANOMALY":"274.8304","ARG_OF_PERICENTER":"85.2835"},{"ECCENTRICITY":"0.00012170","GP_ID":"211251837","TLE_LINE2":"2 46366  53.0567 354.6214 0001217  88.7495 271.3634 15.06396381110774","OBJECT_NAME":"STARLINK-1651","MEAN_ANOMALY":"271.3634","ARG_OF_PERICENTER":"88.7495","RCS_SIZE":"LARGE","INCLINATION":"53.0567","FILE":"3550737","SITE":"AFETR","DECAY_DATE":null,"MEAN_MOTION":"15.06396381","TLE_LINE1":"1 46366U 20062AT  22241.47975960 -.00000932  00000-0 -43688-4 0  9992","EPHEMERIS_TYPE":"0","CENTER_NAME":"EARTH","MEAN_ELEMENT_THEORY":"SGP4","REF_FRAME":"TEME","ELEMENT_SET_NO":"999","PERIOD":"95.592","COUNTRY_CODE":"US","TIME_SYSTEM":"UTC","CLASSIFICATION_TYPE":"U","APOAPSIS":"548.067","LAUNCH_DATE":"2020-09-03","EPOCH":"2022-08-29T11:30:51.229440","RA_OF_ASC_NODE":"354.6214","MEAN_MOTION_DDOT":"0.0000000000000","OBJECT_TYPE":"PAYLOAD","NORAD_CAT_ID":"46366","PERIAPSIS":"546.382","SEMIMAJOR_AXIS":"6925.360","MEAN_MOTION_DOT":"-0.00000932","REV_AT_EPOCH":"11077","BSTAR":"-0.00004368800000","OBJECT_ID":"2020-062AT"},{"TLE_LINE1":"1 46368U 20062AV  22241.81008802  .00000043  00000-0  21797-4 0  9992","MEAN_MOTION":"15.06403588","DECAY_DATE":null,"SITE":"AFETR","ELEMENT_SET_NO":"999","MEAN_ELEMENT_THEORY":"SGP4","REF_FRAME":"TEME","EPHEMERIS_TYPE":"0","CENTER_NAME":"EARTH","FILE":"3551093","INCLINATION":"53.0558","MEAN_ANOMALY":"279.9740","ARG_OF_PERICENTER":"80.1385","OBJECT_NAME":"STARLINK-1658","RCS_SIZE":"LARGE","TLE_LINE2":"2 46368  53.0558  18.1162 0001207  80.1385 279.9740 15.06403588110481","GP_ID":"211284420","ECCENTRICITY":"0.00012070","BSTAR":"0.00002179700000","REV_AT_EPOCH":"11048","MEAN_MOTION_DOT":"0.00000043","SEMIMAJOR_AXIS":"6925.338","PERIAPSIS":"546.367","OBJECT_ID":"2020-062AV","MEAN_MOTION_DDOT":"0.0000000000000","LAUNCH_DATE":"2020-09-03","EPOCH":"2022-08-29T19:26:31.604928","RA_OF_ASC_NODE":"18.1162","NORAD_CAT_ID":"46368","OBJECT_TYPE":"PAYLOAD","CLASSIFICATION_TYPE":"U","APOAPSIS":"548.038","COUNTRY_CODE":"US","PERIOD":"95.592","TIME_SYSTEM":"UTC"}];
